GLOBALSTAR M084         
1 38040U 11080A   24161.61398405 -.00000099  00000+0  27161-4 0  9994
2 38040  52.0006 102.7201 0000565  15.2691 156.3476 12.62263245575612
GLOBALSTAR M080         
1 38041U 11080B   24161.26576969 -.00000110  00000+0 -34054-4 0  9993
2 38041  52.0054 105.2554 0000475 343.5320 165.1103 12.62273371575695
GLOBALSTAR M082         
1 38042U 11080C   24161.96194873 -.00000077  00000+0  15034-3 0  9998
2 38042  52.0091  58.5451 0001264  77.4957 295.4279 12.62270043576492
GLOBALSTAR M092         
1 38043U 11080D   24161.93943727 -.00000122  00000+0 -99426-4 0  9996
2 38043  52.0058 148.9687 0000327  22.1697   9.6464 12.62262873574949
GLOBALSTAR M090         
1 38044U 11080E   24161.98847815 -.00000079  00000+0  14051-3 0  9993
2 38044  51.9902  52.7524 0000961  78.4619 295.3159 12.62263832576617
GLOBALSTAR M086         
1 38045U 11080F   24161.94738530 -.00000081  00000+0  12836-3 0  9995
2 38045  51.9916  53.3978 0000507 159.2496 268.5916 12.62263159576558
GLOBALSTAR M097         
1 39072U 13005A   24161.80110029 -.00000094  00000+0  56497-4 0  9993
2 39072  52.0064 328.0172 0000985 117.8080 242.2887 12.62263635523784
GLOBALSTAR M093         
1 39073U 13005B   24161.85366271 -.00000081  00000+0  12801-3 0  9997
2 39073  51.9826 321.7549 0001078 121.4985 238.5987 12.62260058523747
